$$SOE
2460147.500000000, A.D. 2023-Jul-22 00:00:00.0000, -2.418345321652952E+08, -3.081355586094593E+08, -1.598255987726469E+08,
2460154.500000000, A.D. 2023-Jul-29 00:00:00.0000, -2.339282388772106E+08, -3.133952173264959E+08, -1.603838165774682E+08,
2460161.500000000, A.D. 2023-Aug-05 00:00:00.0000, -2.258716268277864E+08, -3.184534253608854E+08, -1.608389305320738E+08,
2460168.500000000, A.D. 2023-Aug-12 00:00:00.0000, -2.176694351946566E+08, -3.233063084583619E+08, -1.611903327494982E+08,
2460175.500000000, A.D. 2023-Aug-19 00:00:00.0000, -2.093264691471713E+08, -3.279500175261688E+08, -1.614374366426327E+08,
2460182.500000000, A.D. 2023-Aug-26 00:00:00.0000, -2.008476037522644E+08, -3.323807273974117E+08, -1.615796771913028E+08,
2460189.500000000, A.D. 2023-Sep-02 00:00:00.0000, -1.922377880705968E+08, -3.365946358406098E+08, -1.616165113099575E+08,
2460196.500000000, A.D. 2023-Sep-09 00:00:00.0000, -1.835020494096461E+08, -3.405879628628286E+08, -1.615474183260539E+08,
2460203.500000000, A.D. 2023-Sep-16 00:00:00.0000, -1.746454975689748E+08, -3.443569503723103E+08, -1.613719005929259E+08,
2460210.500000000, A.D. 2023-Sep-23 00:00:00.0000, -1.656733286650636E+08, -3.478978619226167E+08, -1.610894842557310E+08,
2460217.500000000, A.D. 2023-Sep-30 00:00:00.0000, -1.565908288791169E+08, -3.512069813571318E+08, -1.606997200460047E+08,
2460224.500000000, A.D. 2023-Oct-07 00:00:00.0000, -1.474033804848853E+08, -3.542806109069177E+08, -1.602021839371875E+08,
2460231.500000000, A.D. 2023-Oct-14 00:00:00.0000, -1.381164691191316E+08, -3.571150720670859E+08, -1.595964780319693E+08,
2460238.500000000, A.D. 2023-Oct-21 00:00:00.0000, -1.287356890694061E+08, -3.597067076636907E+08, -1.588822318530223E+08,
2460245.500000000, A.D. 2023-Oct-28 00:00:00.0000, -1.192667480076783E+08, -3.620518828668557E+08, -1.580591037286133E+08,
2460252.500000000, A.D. 2023-Nov-04 00:00:00.0000, -1.097154724236937E+08, -3.641469859368726E+08, -1.571267822279440E+08,
2460259.500000000, A.D. 2023-Nov-11 00:00:00.0000, -1.000878135836095E+08, -3.659884293207133E+08, -1.560849877181752E+08,
2460266.500000000, A.D. 2023-Nov-18 00:00:00.0000, -9.038985379665425E+07, -3.675726511824363E+08, -1.549334740755635E+08,
2460273.500000000, A.D. 2023-Nov-25 00:00:00.0000, -8.062781291814379E+07, -3.688961173661799E+08, -1.536720305633942E+08,
2460280.500000000, A.D. 2023-Dec-02 00:00:00.0000, -7.080805506103995E+07, -3.699553238267422E+08, -1.523004838893017E+08,
2460287.500000000, A.D. 2023-Dec-09 00:00:00.0000, -6.093709543821737E+07, -3.707467996129794E+08, -1.508187004641483E+08,
2460294.500000000, A.D. 2023-Dec-16 00:00:00.0000, -5.102160704733488E+07, -3.712671104199842E+08, -1.492265888986834E+08,
2460301.500000000, A.D. 2023-Dec-23 00:00:00.0000, -4.106842684822159E+07, -3.715128620532252E+08, -1.475241027250466E+08,
2460308.500000000, A.D. 2023-Dec-30 00:00:00.0000, -3.108456276980527E+07, -3.714807027878236E+08, -1.457112431458905E+08,
2460315.500000000, A.D. 2024-Jan-06 00:00:00.0000, -2.107720331320506E+07, -3.711673270176773E+08, -1.437880618530080E+08,
2460322.500000000, A.D. 2024-Jan-13 00:00:00.0000, -1.105372656915600E+07, -3.705694820388538E+08, -1.417546643670974E+08,
2460329.500000000, A.D. 2024-Jan-20 00:00:00.0000, -1.021707415190273E+06, -3.696839749250046E+08, -1.396112137737623E+08,
2460336.500000000, A.D. 2024-Jan-27 00:00:00.0000, 9.011075091616765E+06, -3.685076788880183E+08, -1.373579346319004E+08,
2460343.500000000, A.D. 2024-Feb-03 00:00:00.0000, 1.903662971402204E+07, -3.670375401205753E+08, -1.349951171084484E+08,
2460350.500000000, A.D. 2024-Feb-10 00:00:00.0000, 2.904674472301365E+07, -3.652705854629906E+08, -1.325231214048460E+08,
2460357.500000000, A.D. 2024-Feb-17 00:00:00.0000, 3.903297943713062E+07, -3.632039309407256E+08, -1.299423825034125E+08,
2460364.500000000, A.D. 2024-Feb-24 00:00:00.0000, 4.898665567639535E+07, -3.608347912145488E+08, -1.272534152512865E+08,
2460371.500000000, A.D. 2024-Mar-02 00:00:00.0000, 5.889884919398215E+07, -3.581604900350392E+08, -1.244568198022380E+08,
2460378.500000000, A.D. 2024-Mar-09 00:00:00.0000, 6.876038126555529E+07, -3.551784718263705E+08, -1.215532874490029E+08,
2460385.500000000, A.D. 2024-Mar-16 00:00:00.0000, 7.856181088125663E+07, -3.518863142677267E+08, -1.185436068814945E+08,
2460392.500000000, A.D. 2024-Mar-23 00:00:00.0000, 8.829342749570356E+07, -3.482817408332804E+08, -1.154286707871975E+08,
2460399.500000000, A.D. 2024-Mar-30 00:00:00.0000, 9.794524216257836E+07, -3.443626333917635E+08, -1.122094826077898E+08,
2460406.500000000, A.D. 2024-Apr-06 00:00:00.0000, 1.075069773867068E+08, -3.401270483104602E+08, -1.088871637678204E+08,
2460413.500000000, A.D. 2024-Apr-13 00:00:00.0000, 1.169680593323067E+08, -3.355732353082180E+08, -1.054629616491392E+08,
2460420.500000000, A.D. 2024-Apr-20 00:00:00.0000, 1.263176115339970E+08, -3.306996564649762E+08, -1.019382580192956E+08,
2460427.500000000, A.D. 2024-Apr-27 00:00:00.0000, 1.355444487052897E+08, -3.255050060329835E+08, -9.831457783128797E+07,
2460434.500000000, A.D. 2024-May-04 00:00:00.0000, 1.446370708599685E+08, -3.199882318353668E+08, -9.459359846727245E+07,
2460441.500000000, A.D. 2024-May-11 00:00:00.0000, 1.535836581295142E+08, -3.141485584346580E+08, -9.077715946001892E+07,
2460448.500000000, A.D. 2024-May-18 00:00:00.0000, 1.623720665214990E+08, -3.079855121279299E+08, -8.686727269728522E+07,
2460455.500000000, A.D. 2024-May-25 00:00:00.0000, 1.709898248259035E+08, -3.014989478489460E+08, -8.286613310599793E+07,
2460462.500000000, A.D. 2024-Jun-01 00:00:00.0000, 1.794241329333612E+08, -2.946890781005344E+08, -7.877612981429161E+07,
2460469.500000000, A.D. 2024-Jun-08 00:00:00.0000, 1.876618620406149E+08, -2.875565039980146E+08, -7.459985779741326E+07,
2460476.500000000, A.D. 2024-Jun-15 00:00:00.0000, 1.956895573965242E+08, -2.801022479282486E+08, -7.034012997356376E+07,
2460483.500000000, A.D. 2024-Jun-22 00:00:00.0000, 2.034934428606030E+08, -2.723277866858126E+08, -6.599998952493970E+07,
2460490.500000000, A.D. 2024-Jun-29 00:00:00.0000, 2.110594254532129E+08, -2.642350869222662E+08, -6.158272234849311E+07,
2460497.500000000, A.D. 2024-Jul-06 00:00:00.0000, 2.183731028701761E+08, -2.558266453675565E+08, -5.709187001720937E+07,
2460504.500000000, A.D. 2024-Jul-13 00:00:00.0000, 2.254197762686941E+08, -2.471055309605201E+08, -5.253124312188388E+07,
2460511.500000000, A.D. 2024-Jul-20 00:00:00.0000, 2.321844667234284E+08, -2.380754276702576E+08, -4.790493462246604E+07,
2460518.500000000, A.D. 2024-Jul-27 00:00:00.0000, 2.386519351046017E+08, -2.287406788585329E+08, -4.321733311201909E+07,
2460525.500000000, A.D. 2024-Aug-03 00:00:00.0000, 2.448067060798714E+08, -2.191063334011157E+08, -3.847313591100343E+07,
2460532.500000000, A.D. 2024-Aug-10 00:00:00.0000, 2.506330968515847E+08, -2.091781933600676E+08, -3.367736184435482E+07,
2460539.500000000, A.D. 2024-Aug-17 00:00:00.0000, 2.561152511337947E+08, -1.989628629084577E+08, -2.883536351354150E+07,
2460546.500000000, A.D. 2024-Aug-24 00:00:00.0000, 2.612371788576324E+08, -1.884677981784671E+08, -2.395283884897919E+07,
2460553.500000000, A.D. 2024-Aug-31 00:00:00.0000, 2.659828021774864E+08, -1.777013576572578E+08, -1.903584171071323E+07,
2460560.500000000, A.D. 2024-Sep-07 00:00:00.0000, 2.703360085923679E+08, -1.666728524734230E+08, -1.409079128479303E+07,
2460567.500000000, A.D. 2024-Sep-14 00:00:00.0000, 2.742807117023292E+08, -1.553925949561802E+08, -9.124479897347249E+06,
2460574.500000000, A.D. 2024-Sep-21 00:00:00.0000, 2.778009179676235E+08, -1.438719443425584E+08, -4.144078691187359E+06,
2460581.500000000, A.D. 2024-Sep-28 00:00:00.0000, 2.808807993100761E+08, -1.321233520428842E+08, 8.428589827846661E+05,
2460588.500000000, A.D. 2024-Oct-05 00:00:00.0000, 2.835047754656704E+08, -1.201604055288074E+08, 5.828396518298000E+06,
2460595.500000000, A.D. 2024-Oct-12 00:00:00.0000, 2.856576058638374E+08, -1.079978668177747E+08, 1.080421604671295E+07,
2460602.500000000, A.D. 2024-Oct-19 00:00:00.0000, 2.873244892874695E+08, -9.565170467231902E+07, 1.576162404601130E+07,
2460609.500000000, A.D. 2024-Oct-26 00:00:00.0000, 2.884911711254809E+08, -8.313912006232092E+07, 2.069156094942750E+07,
2460616.500000000, A.D. 2024-Nov-02 00:00:00.0000, 2.891440581316853E+08, -7.047856369853228E+07, 2.558461516261921E+07,
2460623.500000000, A.D. 2024-Nov-09 00:00:00.0000, 2.892703402279183E+08, -5.768974421202677E+07, 3.043104191310601E+07,
2460630.500000000, A.D. 2024-Nov-16 00:00:00.0000, 2.888581185756488E+08, -4.479362554039721E+07, 3.522078733214299E+07,
2460637.500000000, A.D. 2024-Nov-23 00:00:00.0000, 2.878965388903940E+08, -3.181241213552045E+07, 3.994351811607878E+07,
2460644.500000000, A.D. 2024-Nov-30 00:00:00.0000, 2.863759288362681E+08, -1.876952064646074E+07, 4.458865702813081E+07,
2460651.500000000, A.D. 2024-Dec-07 00:00:00.0000, 2.842879382347763E+08, -5.689536350822471E+06, 4.914542442065425E+07,
2460658.500000000, A.D. 2024-Dec-14 00:00:00.0000, 2.816256794230930E+08, 7.401848070117669E+06, 5.360288601148042E+07,
2460665.500000000, A.D. 2024-Dec-21 00:00:00.0000, 2.783838632156326E+08, 2.047791114338341E+07, 5.795000697683454E+07,
2460672.500000000, A.D. 2024-Dec-28 00:00:00.0000, 2.745589299603748E+08, 3.351099631247208E+07, 6.217571174559294E+07,
2460679.500000000, A.D. 2025-Jan-04 00:00:00.0000, 2.701491755727631E+08, 4.647262344604536E+07, 6.626894909135791E+07,
2460686.500000000, A.D. 2025-Jan-11 00:00:00.0000, 2.651548678449769E+08, 5.933361972878621E+07, 7.021876228425178E+07,
2460693.500000000, A.D. 2025-Jan-18 00:00:00.0000, 2.595783491414676E+08, 7.206426847753921E+07, 7.401436357865317E+07,
2460700.500000000, A.D. 2025-Jan-25 00:00:00.0000, 2.534241227518431E+08, 8.463447437173164E+07, 7.764521205071308E+07,
2460707.500000000, A.D. 2025-Feb-01 00:00:00.0000, 2.466989202251391E+08, 9.701394350746807E+07, 8.110109365973811E+07,
$$EOE